[{"OBJECT_NAME":"STARLINK-30178","OBJECT_ID":"2023-105T","EPOCH":"2026-03-09T22:00:01.999584","MEAN_MOTION":15.22405085,"ECCENTRICITY":8.111e-5,"INCLINATION":42.9995,"RA_OF_ASC_NODE":258.5418,"ARG_OF_PERICENTER":319.8962,"MEAN_ANOMALY":154.376,"EPHEMERIS_TYPE":0,"CLASSIFICATION_TYPE":"U","NORAD_CAT_ID":57447,"ELEMENT_SET_NO":999,"REV_AT_EPOCH":578,"BSTAR":0.0055738617,"MEAN_MOTION_DOT":0.00133479,"MEAN_MOTION_DDOT":0},{"OBJECT_NAME":"ZORKY-2M 7","OBJECT_ID":"2025-313W","EPOCH":"2026-03-09T22:43:05.743200","MEAN_MOTION":15.21225131,"ECCENTRICITY":0.00148584,"INCLINATION":97.4012,"RA_OF_ASC_NODE":145.1843,"ARG_OF_PERICENTER":357.9354,"MEAN_ANOMALY":2.1818,"EPHEMERIS_TYPE":0,"CLASSIFICATION_TYPE":"U","NORAD_CAT_ID":67268,"ELEMENT_SET_NO":999,"REV_AT_EPOCH":1085,"BSTAR":0.00041986274,"MEAN_MOTION_DOT":9.334e-5,"MEAN_MOTION_DDOT":0}]
